*******************************************************************************
Ephemeris / WWW_USER Mon Mar 24 07:35:47 2025 Pasadena, USA      / Horizons    
*******************************************************************************
Target body name: (2018 RG5)                      {source: JPL#6}
Center body name: Earth (399)                     {source: DE441}
Center-site name: Mauna Kea
*******************************************************************************
Start time      : A.D. 2018-Sep-26 04:24:00.0000 UT      
Stop  time      : A.D. 2018-Sep-26 16:02:00.0000 UT      
Step-size       : 1 minutes
*******************************************************************************
Target pole/equ : undefined
Target radii    : undefined                                                    
Center geodetic : 204.5278, 19.8260847, 4.21024   {E-lon(deg),Lat(deg),Alt(km)}
Center cylindric: 204.5278, 6006.35451, 2151.0229 {E-lon(deg),Dxy(km),Dz(km)}
Center pole/equ : ITRF93                          {East-longitude positive}
Center radii    : 6378.137, 6378.137, 6356.752 km {Equator_a, b, pole_c}       
Target primary  : Sun
Vis. interferer : MOON (R_eq= 1737.400) km        {source: DE441}
Rel. light bend : Sun                             {source: DE441}
Rel. lght bnd GM: 1.3271E+11 km^3/s^2                                          
Small-body perts: Yes                             {source: SB441-N16}
Atmos refraction: NO (AIRLESS)
RA format       : HMS
Time format     : CAL 
Calendar mode   : Mixed Julian/Gregorian
RTS-only print  : NO       
EOP file        : eop.250321.p250617                                           
EOP coverage    : DATA-BASED 1962-JAN-20 TO 2025-MAR-21. PREDICTS-> 2025-JUN-16
Units conversion: 1 au= 149597870.700 km, c= 299792.458 km/s, 1 day= 86400.0 s 
Table cut-offs 1: Elevation (-90.0deg=NO ),Airmass (>38.000=NO), Daylight (YES)
Table cut-offs 2: Solar elongation (  0.0,180.0=NO ),Local Hour Angle( 0.0=NO )
Table cut-offs 3: RA/DEC angular rate (     0.0=NO )                           
*******************************************************************************
Initial IAU76/J2000 heliocentric ecliptic osculating elements (au, days, deg.):
  EPOCH=  2458374.5 ! 2018-Sep-13.00 (TDB)         Residual RMS= .44286        
   EC= .3970272763955992   QR= .9476094655819058   TP= 2458410.7007282218      
   OM= 172.9777515025259   W=  220.286388004559    IN= 6.065188755768435       
  Equivalent ICRF heliocentric cartesian coordinates (au, au/d):
   X= 1.011373795361920E+00  Y=-1.657289676662098E-01  Z=-6.569093016663846E-02
  VX=-6.707749535245534E-04 VY= 1.878070382659777E-02 VZ= 5.901532854039199E-03
Asteroid physical parameters (km, seconds, rotational period in hours):        
   GM= n.a.                RAD= n.a.               ROTPER= n.a.                
   H= 26.76                G= .150                 B-V= n.a.                   
                           ALBEDO= n.a.            STYP= n.a.                  
*******************************************************************************
 Date__(UT)__HR:MN     R.A._________(ICRF)_________DEC
******************************************************
$$SOE
 2018-Sep-26 06:27  m  08 07 50.272027 -07 53 41.76867
 2018-Sep-26 06:28  m  08 07 50.576772 -07 53 42.32000
 2018-Sep-26 06:29  m  08 07 50.881461 -07 53 42.87172
 2018-Sep-26 06:30  m  08 07 51.186093 -07 53 43.42381
 2018-Sep-26 06:31  m  08 07 51.490668 -07 53 43.97628
 2018-Sep-26 06:32  m  08 07 51.795184 -07 53 44.52913
 2018-Sep-26 06:33  m  08 07 52.099640 -07 53 45.08235
 2018-Sep-26 06:34  m  08 07 52.404035 -07 53 45.63594
 2018-Sep-26 06:35  m  08 07 52.708369 -07 53 46.18992
 2018-Sep-26 06:36  m  08 07 53.012640 -07 53 46.74427
 2018-Sep-26 06:37  m  08 07 53.316847 -07 53 47.29899
 2018-Sep-26 06:38  m  08 07 53.620990 -07 53 47.85409
 2018-Sep-26 06:39  m  08 07 53.925067 -07 53 48.40956
 2018-Sep-26 06:40  m  08 07 54.229078 -07 53 48.96541
 2018-Sep-26 06:41  m  08 07 54.533021 -07 53 49.52163
 2018-Sep-26 06:42  m  08 07 54.836896 -07 53 50.07823
 2018-Sep-26 06:43  m  08 07 55.140702 -07 53 50.63520
 2018-Sep-26 06:44  m  08 07 55.444437 -07 53 51.19254
 2018-Sep-26 06:45  m  08 07 55.748101 -07 53 51.75026
 2018-Sep-26 06:46  m  08 07 56.051693 -07 53 52.30835
 2018-Sep-26 06:47  m  08 07 56.355211 -07 53 52.86681
 2018-Sep-26 06:48  m  08 07 56.658656 -07 53 53.42564
 2018-Sep-26 06:49  m  08 07 56.962025 -07 53 53.98485
 2018-Sep-26 06:50  m  08 07 57.265318 -07 53 54.54442
 2018-Sep-26 06:51  m  08 07 57.568534 -07 53 55.10437
 2018-Sep-26 06:52  m  08 07 57.871672 -07 53 55.66469
 2018-Sep-26 06:53  m  08 07 58.174731 -07 53 56.22538
 2018-Sep-26 06:54  m  08 07 58.477711 -07 53 56.78644
 2018-Sep-26 06:55  m  08 07 58.780609 -07 53 57.34786
 2018-Sep-26 06:56  m  08 07 59.083426 -07 53 57.90966
 2018-Sep-26 06:57  m  08 07 59.386160 -07 53 58.47182
 2018-Sep-26 06:58  m  08 07 59.688810 -07 53 59.03436
 2018-Sep-26 06:59  m  08 07 59.991376 -07 53 59.59726
 2018-Sep-26 07:00  m  08 08 00.293856 -07 54 00.16052
 2018-Sep-26 07:01  m  08 08 00.596250 -07 54 00.72416
 2018-Sep-26 07:02  m  08 08 00.898556 -07 54 01.28816
 2018-Sep-26 07:03  m  08 08 01.200774 -07 54 01.85253
 2018-Sep-26 07:04  m  08 08 01.502903 -07 54 02.41726
 2018-Sep-26 07:05  m  08 08 01.804941 -07 54 02.98236
 2018-Sep-26 07:06  m  08 08 02.106888 -07 54 03.54782
 2018-Sep-26 07:07  m  08 08 02.408743 -07 54 04.11364
 2018-Sep-26 07:08  m  08 08 02.710505 -07 54 04.67983
 2018-Sep-26 07:09  m  08 08 03.012173 -07 54 05.24639
 2018-Sep-26 07:10  m  08 08 03.313746 -07 54 05.81330
 2018-Sep-26 07:11  m  08 08 03.615224 -07 54 06.38058
 2018-Sep-26 07:12  m  08 08 03.916604 -07 54 06.94821
 2018-Sep-26 07:13  m  08 08 04.217887 -07 54 07.51621
 2018-Sep-26 07:14  m  08 08 04.519071 -07 54 08.08457
 2018-Sep-26 07:15  m  08 08 04.820155 -07 54 08.65329
 2018-Sep-26 07:16  m  08 08 05.121139 -07 54 09.22237
 2018-Sep-26 07:17  m  08 08 05.422022 -07 54 09.79180
 2018-Sep-26 07:18  m  08 08 05.722803 -07 54 10.36160
 2018-Sep-26 07:19  m  08 08 06.023480 -07 54 10.93175
 2018-Sep-26 07:20  m  08 08 06.324053 -07 54 11.50225
 2018-Sep-26 07:21  m  08 08 06.624521 -07 54 12.07312
 2018-Sep-26 07:22  m  08 08 06.924882 -07 54 12.64434
 2018-Sep-26 07:23  m  08 08 07.225137 -07 54 13.21591
 2018-Sep-26 07:24  m  08 08 07.525285 -07 54 13.78784
 2018-Sep-26 07:25  m  08 08 07.825323 -07 54 14.36012
 2018-Sep-26 07:26  m  08 08 08.125252 -07 54 14.93275
 2018-Sep-26 07:27  m  08 08 08.425070 -07 54 15.50574
 2018-Sep-26 07:28  m  08 08 08.724777 -07 54 16.07908
 2018-Sep-26 07:29  m  08 08 09.024372 -07 54 16.65277
 2018-Sep-26 07:30  m  08 08 09.323853 -07 54 17.22680
 2018-Sep-26 07:31  m  08 08 09.623221 -07 54 17.80119
 2018-Sep-26 07:32  m  08 08 09.922473 -07 54 18.37593
 2018-Sep-26 07:33  m  08 08 10.221609 -07 54 18.95101
 2018-Sep-26 07:34  m  08 08 10.520628 -07 54 19.52645
 2018-Sep-26 07:35  m  08 08 10.819530 -07 54 20.10222
 2018-Sep-26 07:36  m  08 08 11.118313 -07 54 20.67835
 2018-Sep-26 07:37  m  08 08 11.416977 -07 54 21.25482
 2018-Sep-26 07:38  m  08 08 11.715520 -07 54 21.83163
 2018-Sep-26 07:39  m  08 08 12.013942 -07 54 22.40879
 2018-Sep-26 07:40  m  08 08 12.312241 -07 54 22.98629
 2018-Sep-26 07:41  m  08 08 12.610418 -07 54 23.56413
 2018-Sep-26 07:42  m  08 08 12.908471 -07 54 24.14231
 2018-Sep-26 07:43  m  08 08 13.206399 -07 54 24.72084
 2018-Sep-26 07:44  m  08 08 13.504201 -07 54 25.29970
 2018-Sep-26 07:45  m  08 08 13.801877 -07 54 25.87890
 2018-Sep-26 07:46  m  08 08 14.099425 -07 54 26.45844
 2018-Sep-26 07:47  m  08 08 14.396845 -07 54 27.03832
 2018-Sep-26 07:48  m  08 08 14.694136 -07 54 27.61853
 2018-Sep-26 07:49  m  08 08 14.991297 -07 54 28.19908
 2018-Sep-26 07:50  m  08 08 15.288327 -07 54 28.77996
 2018-Sep-26 07:51  m  08 08 15.585225 -07 54 29.36118
 2018-Sep-26 07:52  m  08 08 15.881990 -07 54 29.94273
 2018-Sep-26 07:53  m  08 08 16.178622 -07 54 30.52461
 2018-Sep-26 07:54  m  08 08 16.475120 -07 54 31.10682
 2018-Sep-26 07:55  m  08 08 16.771483 -07 54 31.68937
 2018-Sep-26 07:56  m  08 08 17.067709 -07 54 32.27224
 2018-Sep-26 07:57  m  08 08 17.363799 -07 54 32.85544
 2018-Sep-26 07:58  m  08 08 17.659751 -07 54 33.43897
 2018-Sep-26 07:59  m  08 08 17.955564 -07 54 34.02282
 2018-Sep-26 08:00  m  08 08 18.251238 -07 54 34.60700
 2018-Sep-26 08:01  m  08 08 18.546771 -07 54 35.19151
 2018-Sep-26 08:02  m  08 08 18.842163 -07 54 35.77634
 2018-Sep-26 08:03  m  08 08 19.137414 -07 54 36.36149
 2018-Sep-26 08:04  m  08 08 19.432521 -07 54 36.94696
 2018-Sep-26 08:05  m  08 08 19.727485 -07 54 37.53275
 2018-Sep-26 08:06  m  08 08 20.022305 -07 54 38.11887
 2018-Sep-26 08:07  m  08 08 20.316979 -07 54 38.70530
 2018-Sep-26 08:08  m  08 08 20.611507 -07 54 39.29205
 2018-Sep-26 08:09  m  08 08 20.905889 -07 54 39.87912
 2018-Sep-26 08:10  m  08 08 21.200122 -07 54 40.46650
 2018-Sep-26 08:11  m  08 08 21.494207 -07 54 41.05420
 2018-Sep-26 08:12  m  08 08 21.788142 -07 54 41.64221
 2018-Sep-26 08:13  m  08 08 22.081928 -07 54 42.23054
 2018-Sep-26 08:14  m  08 08 22.375562 -07 54 42.81918
 2018-Sep-26 08:15  m  08 08 22.669044 -07 54 43.40812
 2018-Sep-26 08:16  m  08 08 22.962374 -07 54 43.99738
 2018-Sep-26 08:17  m  08 08 23.255550 -07 54 44.58695
 2018-Sep-26 08:18  m  08 08 23.548572 -07 54 45.17682
 2018-Sep-26 08:19  m  08 08 23.841439 -07 54 45.76700
 2018-Sep-26 08:20  m  08 08 24.134150 -07 54 46.35749
 2018-Sep-26 08:21  m  08 08 24.426705 -07 54 46.94828
 2018-Sep-26 08:22  m  08 08 24.719101 -07 54 47.53937
 2018-Sep-26 08:23  m  08 08 25.011340 -07 54 48.13077
 2018-Sep-26 08:24  m  08 08 25.303420 -07 54 48.72246
 2018-Sep-26 08:25  m  08 08 25.595340 -07 54 49.31446
 2018-Sep-26 08:26  m  08 08 25.887099 -07 54 49.90676
 2018-Sep-26 08:27  m  08 08 26.178697 -07 54 50.49935
 2018-Sep-26 08:28  m  08 08 26.470133 -07 54 51.09224
 2018-Sep-26 08:29  m  08 08 26.761406 -07 54 51.68543
